[
    {
        "CCSDS_OMM_VERS": "3.0",
        "COMMENT": "GENERATED VIA SPACE-TRACK.ORG API",
        "CREATION_DATE": "2025-03-01T17:52:32",
        "ORIGINATOR": "18 SPCS",
        "OBJECT_NAME": "COSMOS 2500 (GLONASS)",
        "OBJECT_ID": "2014-032A",
        "CENTER_NAME": "EARTH",
        "REF_FRAME": "TEME",
        "TIME_SYSTEM": "UTC",
        "MEAN_ELEMENT_THEORY": "SGP4",
        "EPOCH": "2025-03-01T00:44:57.510816",
        "MEAN_MOTION": "2.13105881",
        "ECCENTRICITY": "0.00049700",
        "INCLINATION": "65.4943",
        "RA_OF_ASC_NODE": "329.7590",
        "ARG_OF_PERICENTER": "211.4783",
        "MEAN_ANOMALY": "148.5415",
        "EPHEMERIS_TYPE": "0",
        "CLASSIFICATION_TYPE": "U",
        "NORAD_CAT_ID": "40001",
        "ELEMENT_SET_NO": "999",
        "REV_AT_EPOCH": "8337",
        "BSTAR": "0.00000000000000",
        "MEAN_MOTION_DOT": "-0.00000043",
        "MEAN_MOTION_DDOT": "0.0000000000000",
        "SEMIMAJOR_AXIS": "25507.715",
        "PERIOD": "675.720",
        "APOAPSIS": "19142.257",
        "PERIAPSIS": "19116.902",
        "OBJECT_TYPE": "PAYLOAD",
        "RCS_SIZE": "LARGE",
        "COUNTRY_CODE": "CIS",
        "LAUNCH_DATE": "2014-06-14",
        "SITE": "PKMTR",
        "DECAY_DATE": null,
        "FILE": "4656182",
        "GP_ID": "282001537",
        "TLE_LINE0": "0 COSMOS 2500 (GLONASS)",
        "TLE_LINE1": "1 40001U 14032A   25060.03122119 -.00000043  00000-0  00000-0 0  9995",
        "TLE_LINE2": "2 40001  65.4943 329.7590 0004970 211.4783 148.5415  2.13105881 83377"
    }
]